COLIBRI-S (RS67S)
1 61746U 24199M   26182.15383457  .00029441  00000-0  55745-3 0  9993
2 61746  97.2971  56.1390 0007146 213.9427 146.1368 15.48301150139573
POLYTECH UNIVERSE-4 (RS71S)
1 61747U 24199N   26182.16245823  .00023516  00000-0  48140-3 0  9997
2 61747  97.2979  55.3814 0007701 215.9790 144.0942 15.46074181139525
SITRO-AIS-44
1 61748U 24199P   26182.07378593  .00117555  00000-0  94108-3 0  9991
2 61748  97.2850  61.7735 0005228 174.9524 185.1793 15.70687018139962
VIZARD-ION (RS68S)
1 61749U 24199Q   26182.16366646  .00046891  00000-0  67046-3 0  9993
2 61749  97.2963  58.6935 0005757 196.9441 163.1623 15.56077910139746
MTUSI-1
1 61750U 24199R   26182.16468853  .00047570  00000-0  67597-3 0  9994
2 61750  97.2932  58.1438 0005367 209.4411 150.6543 15.56245735139723
VLADIVOSTOK-1
1 61751U 24199S   26182.15311230  .00011289  00000-0  31311-3 0  9993
2 61751  97.2976  51.5048 0007752 252.4050 107.6348 15.37062900139289
SITRO-AIS-14
1 61752U 24199T   26182.15136676  .00003263  00000-0  28268-3 0  9993
2 61752  97.3214  20.6886 0006658  31.8416 328.3209 14.97734074137214
HORS-3 (RS81S)
1 61753U 24199U   26182.17851032  .00047004  00000-0  67532-3 0  9994
2 61753  97.2954  58.3058 0005099 204.2870 155.8146 15.55950693139736
HORS-4 (RS82S)
1 61754U 24199V   26182.15956428  .00076612  00000-0  90583-3 0  9997
2 61754  97.2898  59.5816 0005144 191.8675 168.2462 15.61030006139827
SITRO-AIS-43
1 61755U 24199W   26182.14018102  .00139078  00000-0  10781-2 0  9992
2 61755  97.2871  62.0258 0005238 168.7310 191.4072 15.71396468139981
SITRO-AIS-42
1 61756U 24199X   26182.18421741  .00104402  00000-0  86113-3 0  9990
2 61756  97.2864  62.1134 0003156 213.5028 146.6036 15.70016078139998
SITRO-AIS-20
1 61758U 24199Z   26182.19684311  .00002438  00000-0  21088-3 0  9993
2 61758  97.3218  20.9035 0006843  31.3899 328.7732 14.98015470137239
SITRO-AIS-19
1 61759U 24199AA  26182.20052275  .00002687  00000-0  23208-3 0  9996
2 61759  97.3214  20.9017 0006697  31.9685 328.1944 14.97987797137230
SITRO-AIS-41
1 61760U 24199AB  26182.17014444  .00118757  00000-0  98264-3 0  9990
2 61760  97.2891  61.7531 0005096 169.1976 190.9397 15.69884743139961
NORBY-3
1 61761U 24199AC  26182.14743954  .00055343  00000-0  73283-3 0  9998
2 61761  97.2893  58.9813 0005025 190.0870 170.0286 15.58116846139789
SIT-HSE
1 61763U 24199AE  26182.15802297  .00048504  00000-0  75784-3 0  9996
2 61763  97.2953  58.6506 0004004 197.5801 162.5314 15.53646534139758
SIT-2086
1 61764U 24199AF  26182.17376830  .00046249  00000-0  71199-3 0  9998
2 61764  97.2911  58.7292 0006459 189.1133 171.0005 15.54051841136602
HOD-HOD
1 61768U 24199AK  26182.16172913  .00030890  00000-0  54571-3 0  9997
2 61768  97.2940  57.1325 0004247 217.7830 142.3124 15.50292669136506
KOSAR
1 61769U 24199AL  26182.17144124  .00042231  00000-0  63152-3 0  9999
2 61769  97.2915  58.4333 0003697 195.9366 164.1773 15.54886433136594
SITRO-AIS-48
1 61771U 24199AN  26182.15781963  .00070344  00000-0  88711-3 0  9992
2 61771  97.2901  58.3997 0006056 215.4751 144.6104 15.59350015136605
HYPERVIEW-1G (RS66S)
1 61772U 24199AP  26182.14267932  .00230449  00000-0  12137-2 0  9999
2 61772  97.2834  62.6059 0006937 176.4756 183.6562 15.80026878136878
SITRO-AIS-47
1 61773U 24199AQ  26182.19066000  .00074837  00000-0  91465-3 0  9997
2 61773  97.2883  58.6495 0005540 207.9281 152.1680 15.60164862136623
SITRO-AIS-46
1 61774U 24199AR  26182.16654265  .00077795  00000-0  88616-3 0  9991
2 61774  97.2856  59.0717 0005330 208.7109 151.3857 15.61995561136650
CSTP-2.2
1 61775U 24199AS  26182.14502422  .00020597  00000-0  43976-3 0  9995
2 61775  97.2965  54.5156 0013270 221.2362 138.7886 15.44800555136326
SITRO-AIS-40
1 61776U 24199AT  26182.14188977  .00085375  00000-0  95947-3 0  9991
2 61776  97.2864  59.1190 0005156 206.3359 153.7638 15.62319213139802
CSTP-2.1
1 61777U 24199AU  26182.16283563  .00020935  00000-0  42735-3 0  9999
2 61777  97.2966  54.7895 0013571 219.3478 140.6787 15.46111310136341
SITRO-AIS-39
1 61778U 24199AV  26182.14908907  .00064301  00000-0  81573-3 0  9992
2 61778  97.2871  58.2192 0005608 209.9801 150.1135 15.59218854136598
ALTAIR (RS65S)
1 61779U 24199AW  26182.17319144  .00013960  00000-0  38334-3 0  9997
2 61779  97.3009  51.4329 0010867 252.3239 107.6820 15.37293183139269
SITRO-AIS-37
1 61780U 24199AX  26182.14257971  .00075831  00000-0  91753-3 0  9994
2 61780  97.2901  58.6311 0005967 211.7631 148.3267 15.60422289136611
ASRTU-1 (RS64S/BJ2CR/AO-123)
1 61781U 24199AY  26182.17359978  .00009680  00000-0  27890-3 0  9998
2 61781  97.2979  50.7187 0011930 256.2504 103.7412 15.35873887136074
SAMSAT-IONOSPHERE (RS75S)
1 61784U 24199BB  26182.18756319  .00062987  00000-0  80933-3 0  9998
2 61784  97.2921  58.4146 0007289 210.0085 150.0755 15.58872421139748
RTU MIREA-1 (RS51S)
1 61785U 24199BC  26182.17964448  .00083360  00000-0  92442-3 0  9998
2 61785  97.2905  59.3136 0007334 202.4326 157.6612 15.62654490136655
SITRO-AIS-38
1 61786U 24199BD  26182.14268382  .00040421  00000-0  72738-3 0  9997
2 61786  97.2919  56.5130 0007593 225.5963 134.4667 15.49691873136478
2024-199BE (? SWSU-60)
1 61787U 24199BE  26182.18786622  .00011503  00000-0  32218-3 0  9992
2 61787  97.2988  51.0511 0011417 253.3910 106.6081 15.36719209139248
SITRO-AIS-45
1 61788U 24199BF  26182.09948741  .00059375  00000-0  74521-3 0  9997
2 61788  97.2869  58.2551 0005585 209.6804 150.4136 15.59522286136578
SITRO-AIS-17
1 61789U 24199BG  26182.18828729  .00002626  00000-0  22669-3 0  9994
2 61789  97.3232  20.9460 0007301  38.7035 321.4711 14.98027443134130
SITRO-AIS-18
1 61790U 24199BH  26182.20202156  .00002647  00000-0  22878-3 0  9994
2 61790  97.3214  20.9044 0006684  33.3184 326.8459 14.97975833134131
INNOCUBE (TUBSAT-31)
1 62616U 25009H   26181.65521978  .00007160  00000-0  27550-3 0  9994
2 62616  97.3908 261.5068 0004250 286.6896  73.3876 15.26681357 80874
OTP-2
1 63235U 25052AB  26181.94920219  .00009129  00000-0  37745-3 0  9997
2 63235  97.3857  74.1742 0008165 109.0770 251.1352 15.24168530 71966
IONOSFERA-M 03
1 64876U 25155A   26182.18278106  .00000018  00000-0  27884-4 0  9993
2 64876  98.6031 143.7359 0001764 133.5961 226.5363 14.21488686 48397
IONOSFERA-M 04
1 64877U 25155B   26182.14721052  .00000049  00000-0  42090-4 0  9993
2 64877  98.6030 143.6184 0001510 112.3567 247.7771 14.21491162 48388
INNOSAT16 (RS92S7)
1 64878U 25155C   26182.17021492  .00007138  00000-0  28323-3 0  9996
2 64878  97.4571 149.2548 0011986 130.3288 229.8999 15.25605189 82809
GEOSCAN-6 (RS92S6)
1 64879U 25155D   26182.17503137  .00013243  00000-0  45198-3 0  9991
2 64879  97.4562 150.7835 0009730 120.9519 239.2679 15.30411675 82904
GEOSCAN 1 (RS92S1)
1 64880U 25155E   26182.17191994  .00014273  00000-0  47755-3 0  9992
2 64880  97.4559 150.9407 0009671 121.0349 239.1842 15.31037813 82917
239ALFEROV (RS61S)
1 64881U 25155F   26182.18647553  .00019571  00000-0  60864-3 0  9993
2 64881  97.4559 151.5646 0009341 119.7227 240.4946 15.33318909 82957
CSTP-4.3
1 64882U 25155G   26182.16113729  .00010097  00000-0  35252-3 0  9992
2 64882  97.4588 150.7339 0009134 121.8891 238.3239 15.29747727 82894
CSTP-4.2
1 64883U 25155H   26182.16117946  .00006023  00000-0  21155-3 0  9999
2 64883  97.4578 150.7083 0009208 117.8800 242.3374 15.29733749 82891
CSTP-4.4
1 64884U 25155J   26182.16078853  .00010486  00000-0  36569-3 0  9996
2 64884  97.4575 150.7000 0009546 112.9008 247.3240 15.29771484 82894
ASTROLINE-N3
1 64886U 25155L   26182.20167969  .00044258  00000-0  10153-2 0  9994
2 64886  97.4466 153.3997 0009519 109.9379 250.2895 15.42553854 83092
ASTROLINE-N2
1 64888U 25155N   26182.18841493  .00044718  00000-0  10227-2 0  9997
2 64888  97.4474 153.4496 0009492 108.5546 251.6733 15.42645681 83095
GEOSCAN 2 (RS92S2)
1 64890U 25155Q   26182.16316008  .00013664  00000-0  45373-3 0  9994
2 64890  97.4558 151.0899 0009156 110.4379 249.7846 15.31296685 82923
GEOSCAN-5 (RS92S5)
1 64891U 25155R   26182.17261514  .00018870  00000-0  58144-3 0  9991
2 64891  97.4551 151.6934 0008262 123.2034 237.0001 15.33632127 82964
GEOSCAN-4 (RS92S4)
1 64892U 25155S   26182.15537696  .00018803  00000-0  57644-3 0  9997
2 64892  97.4555 151.7285 0008293 123.1259 237.0780 15.33792393 82967
GEOSCAN-3 (RS92S3)
1 64893U 25155T   26182.13773412  .00023524  00000-0  67439-3 0  9993
2 64893  97.4542 152.1814 0008251 122.8770 237.3268 15.35865194 82994
INNOSAT3 (RS92S0)
1 64894U 25155U   26182.17905082  .00052171  00000-0  11073-2 0  9990
2 64894  97.4490 154.0193 0008048 120.6116 239.5927 15.44841140 83129
CSTP-4.1
1 64895U 25155V   26182.16092017  .00010268  00000-0  35841-3 0  9996
2 64895  97.4584 150.7160 0009062 121.1039 239.1092 15.29753673 82885
POLYTECH UNIVERSE-3 (RS46S)
1 57191U 23091AB  26182.17197870  .00007129  00000-0  34021-3 0  9999
2 57191  97.5040 239.8691 0016974  82.6859 277.6304 15.19249145166073
CSTP-1.1
1 57202U 23091AN  26182.17153432  .00006006  00000-0  28798-3 0  9995
2 57202  97.5108 240.9029 0010707  66.6758 293.5601 15.19228957166083
CSTP-1.2
1 57186U 23091W   26182.18020769  .00011311  00000-0  40038-3 0  9999
2 57186  97.5145 248.5801 0018888  48.2285 312.0566 15.29137907166594
MULE-4T
1 67286U 25313AQ  26182.12225516  .00010285  00000-0  42128-3 0  9992
2 67286  97.3935 256.8677 0008132 310.2849  49.7677 15.24454145 28093
SCORPION (RS89S)
1 67293U 25313AX  26182.14412061  .00004977  00000-0  21499-3 0  9994
2 67293  97.3938 256.6884 0009484 303.3284  56.7044 15.22913519 28087
GALAPAGOS-UTE-SWSU
1 67279U 25313AH  26182.13661051  .00008524  00000-0  36453-3 0  9990
2 67279  97.3924 256.5284 0012699 319.0539  40.9744 15.23006733 28071
SAKHACUBE-CHOLBON (RS18S)
1 67290U 25313AU  26182.07081014  .00011263  00000-0  45180-3 0  9992
2 67290  97.3936 256.9337 0007759 311.3566  48.7004 15.25132506 28093
LUCA-1 (RS90S)
1 67287U 25313AR  26181.96596148  .00010292  00000-0  41761-3 0  9996
2 67287  97.3935 256.7704 0008071 312.6695  47.3862 15.24771529 28077
